ACS3                    
1 59588U 24077B   24232.16184839  .00000107  00000+0  16045-3 0  9994
2 59588  97.4019 285.7038 0018807 283.0234  76.8818 13.67699203 16018
